{
    "links": {
        "self": "http://www.neowsapp.com/rest/v1/neo/3627008?api_key=iIulBulltgU6a56xZRHN4H3l9WmuAYTsLGpBGhQ2"
    },
    "id": "3627008",
    "neo_reference_id": "3627008",
    "name": "(2013 CJ129)",
    "designation": "2013 CJ129",
    "nasa_jpl_url": "http://ssd.jpl.nasa.gov/sbdb.cgi?sstr=3627008",
    "absolute_magnitude_h": 24.7,
    "estimated_diameter": {
        "kilometers": {
            "estimated_diameter_min": 0.0305179233,
            "estimated_diameter_max": 0.0682401509
        },
        "meters": {
            "estimated_diameter_min": 30.5179232594,
            "estimated_diameter_max": 68.2401509401
        },
        "miles": {
            "estimated_diameter_min": 0.0189629525,
            "estimated_diameter_max": 0.0424024508
        },
        "feet": {
            "estimated_diameter_min": 100.1244233463,
            "estimated_diameter_max": 223.8850168104
        }
    },
    "is_potentially_hazardous_asteroid": false,
    "close_approach_data": [
        {
            "close_approach_date": "2013-01-26",
            "close_approach_date_full": "2013-Jan-26 15:03",
            "epoch_date_close_approach": 1359212580000,
            "relative_velocity": {
                "kilometers_per_second": "7.4974369843",
                "kilometers_per_hour": "26990.7731436443",
                "miles_per_hour": "16771.0167902828"
            },
            "miss_distance": {
                "astronomical": "0.0937131617",
                "lunar": "36.4544199013",
                "kilometers": "14019289.381285579",
                "miles": "8711182.4786318302"
            },
            "orbiting_body": "Earth"
        }
    ],
    "orbital_data": {
        "orbit_id": "5",
        "orbit_determination_date": "2019-07-18 07:26:52",
        "first_observation_date": "2013-02-14",
        "last_observation_date": "2013-02-16",
        "data_arc_in_days": 2,
        "observations_used": 13,
        "orbit_uncertainty": "9",
        "minimum_orbit_intersection": ".0858575",
        "jupiter_tisserand_invariant": "4.215",
        "epoch_osculation": "2456338.5",
        "eccentricity": ".3887411485973427",
        "semi_major_axis": "1.625334849996635",
        "inclination": "10.29982943961909",
        "ascending_node_longitude": "329.4183588207414",
        "orbital_period": "756.8550239624121",
        "perihelion_distance": ".9935003135536535",
        "perihelion_argument": "125.6508757676599",
        "aphelion_distance": "2.257169386439617",
        "perihelion_time": "2456289.782890424410",
        "mean_anomaly": "23.17241597392555",
        "mean_motion": ".4756525207631822",
        "equinox": "J2000",
        "orbit_class": {
            "orbit_class_type": "APO",
            "orbit_class_description": "Near-Earth asteroid orbits which cross the Earth’s orbit similar to that of 1862 Apollo",
            "orbit_class_range": "a (semi-major axis) > 1.0 AU; q (perihelion) < 1.017 AU"
        }
    },
    "is_sentry_object": false
}